CCSDS_OMM_VERS = 2.0
CREATION_DATE  = 
ORIGINATOR     = 

OBJECT_NAME    = 2025-292H
OBJECT_ID      = 2025-292H
CENTER_NAME    = EARTH
REF_FRAME      = TEME
TIME_SYSTEM    = UTC
MEAN_ELEMENT_THEORY = SGP/SGP4

EPOCH          = 2026-01-05T06:36:11.962080
MEAN_MOTION    = 15.05302392
ECCENTRICITY   = .00152346
INCLINATION    = 97.6561
RA_OF_ASC_NODE = 82.6327
ARG_OF_PERICENTER = 194.3640
MEAN_ANOMALY   = 165.7155

EPHEMERIS_TYPE = 0
CLASSIFICATION_TYPE = U
NORAD_CAT_ID   = 67000
ELEMENT_SET_NO = 999
REV_AT_EPOCH   = 380
BSTAR          = .66966507E-3
MEAN_MOTION_DOT = .9548E-4
MEAN_MOTION_DDOT = 0

CCSDS_OMM_VERS = 2.0
CREATION_DATE  = 
ORIGINATOR     = 

OBJECT_NAME    = 2025-292J
OBJECT_ID      = 2025-292J
CENTER_NAME    = EARTH
REF_FRAME      = TEME
TIME_SYSTEM    = UTC
MEAN_ELEMENT_THEORY = SGP/SGP4

EPOCH          = 2026-01-05T03:39:58.859712
MEAN_MOTION    = 15.04646521
ECCENTRICITY   = .00156769
INCLINATION    = 97.6534
RA_OF_ASC_NODE = 82.4790
ARG_OF_PERICENTER = 186.2000
MEAN_ANOMALY   = 173.9035

EPHEMERIS_TYPE = 0
CLASSIFICATION_TYPE = U
NORAD_CAT_ID   = 67001
ELEMENT_SET_NO = 999
REV_AT_EPOCH   = 391
BSTAR          = .60814946E-3
MEAN_MOTION_DOT = .8514E-4
MEAN_MOTION_DDOT = 0

CCSDS_OMM_VERS = 2.0
CREATION_DATE  = 
ORIGINATOR     = 

OBJECT_NAME    = ZK-1A R/B
OBJECT_ID      = 2025-292K
CENTER_NAME    = EARTH
REF_FRAME      = TEME
TIME_SYSTEM    = UTC
MEAN_ELEMENT_THEORY = SGP/SGP4

EPOCH          = 2026-01-05T03:49:16.492224
MEAN_MOTION    = 15.62774066
ECCENTRICITY   = .01926674
INCLINATION    = 97.7177
RA_OF_ASC_NODE = 84.9409
ARG_OF_PERICENTER = 279.1946
MEAN_ANOMALY   = 78.7563

EPHEMERIS_TYPE = 0
CLASSIFICATION_TYPE = U
NORAD_CAT_ID   = 67002
ELEMENT_SET_NO = 999
REV_AT_EPOCH   = 404
BSTAR          = .708367E-3
MEAN_MOTION_DOT = .169031E-2
MEAN_MOTION_DDOT = .10176847E-4

CCSDS_OMM_VERS = 2.0
CREATION_DATE  = 
ORIGINATOR     = 

OBJECT_NAME    = STARLINK-35660
OBJECT_ID      = 2025-293A
CENTER_NAME    = EARTH
REF_FRAME      = TEME
TIME_SYSTEM    = UTC
MEAN_ELEMENT_THEORY = SGP/SGP4

EPOCH          = 2026-01-05T02:13:20.182944
MEAN_MOTION    = 15.52566254
ECCENTRICITY   = .0003696
INCLINATION    = 69.9982
RA_OF_ASC_NODE = 257.5314
ARG_OF_PERICENTER = 272.9458
MEAN_ANOMALY   = 87.1306

EPHEMERIS_TYPE = 0
CLASSIFICATION_TYPE = U
NORAD_CAT_ID   = 67003
ELEMENT_SET_NO = 999
REV_AT_EPOCH   = 529
BSTAR          = .14821473E-2
MEAN_MOTION_DOT = .92241E-3
MEAN_MOTION_DDOT = 0

CCSDS_OMM_VERS = 2.0
CREATION_DATE  = 
ORIGINATOR     = 

OBJECT_NAME    = STARLINK-35913
OBJECT_ID      = 2025-293B
CENTER_NAME    = EARTH
REF_FRAME      = TEME
TIME_SYSTEM    = UTC
MEAN_ELEMENT_THEORY = SGP/SGP4

EPOCH          = 2026-01-05T02:12:50.533920
MEAN_MOTION    = 15.52561731
ECCENTRICITY   = .00034474
INCLINATION    = 69.9982
RA_OF_ASC_NODE = 257.5294
ARG_OF_PERICENTER = 269.1620
MEAN_ANOMALY   = 90.9171

EPHEMERIS_TYPE = 0
CLASSIFICATION_TYPE = U
NORAD_CAT_ID   = 67004
ELEMENT_SET_NO = 999
REV_AT_EPOCH   = 529
BSTAR          = .12824318E-2
MEAN_MOTION_DOT = .79647E-3
MEAN_MOTION_DDOT = 0

CCSDS_OMM_VERS = 2.0
CREATION_DATE  = 
ORIGINATOR     = 

OBJECT_NAME    = STARLINK-36148
OBJECT_ID      = 2025-293C
CENTER_NAME    = EARTH
REF_FRAME      = TEME
TIME_SYSTEM    = UTC
MEAN_ELEMENT_THEORY = SGP/SGP4

EPOCH          = 2026-01-05T00:00:00.999648
MEAN_MOTION    = 15.52535909
ECCENTRICITY   = .00034174
INCLINATION    = 69.9998
RA_OF_ASC_NODE = 257.7797
ARG_OF_PERICENTER = 272.6655
MEAN_ANOMALY   = 293.9607

EPHEMERIS_TYPE = 0
CLASSIFICATION_TYPE = U
NORAD_CAT_ID   = 67005
ELEMENT_SET_NO = 999
REV_AT_EPOCH   = 389
BSTAR          = -.76032326E-3
MEAN_MOTION_DOT = -.46699E-3
MEAN_MOTION_DDOT = 0

CCSDS_OMM_VERS = 2.0
CREATION_DATE  = 
ORIGINATOR     = 

OBJECT_NAME    = STARLINK-36156
OBJECT_ID      = 2025-293D
CENTER_NAME    = EARTH
REF_FRAME      = TEME
TIME_SYSTEM    = UTC
MEAN_ELEMENT_THEORY = SGP/SGP4

EPOCH          = 2026-01-05T02:11:51.226368
MEAN_MOTION    = 15.52562385
ECCENTRICITY   = .00030666
INCLINATION    = 69.9982
RA_OF_ASC_NODE = 257.5269
ARG_OF_PERICENTER = 263.2725
MEAN_ANOMALY   = 96.8113

EPHEMERIS_TYPE = 0
CLASSIFICATION_TYPE = U
NORAD_CAT_ID   = 67006
ELEMENT_SET_NO = 999
REV_AT_EPOCH   = 529
BSTAR          = .1271449E-2
MEAN_MOTION_DOT = .78955E-3
MEAN_MOTION_DDOT = 0

CCSDS_OMM_VERS = 2.0
CREATION_DATE  = 
ORIGINATOR     = 

OBJECT_NAME    = STARLINK-36123
OBJECT_ID      = 2025-293E
CENTER_NAME    = EARTH
REF_FRAME      = TEME
TIME_SYSTEM    = UTC
MEAN_ELEMENT_THEORY = SGP/SGP4

EPOCH          = 2026-01-05T00:39:18.339840
MEAN_MOTION    = 15.49291729
ECCENTRICITY   = .00177524
INCLINATION    = 69.9985
RA_OF_ASC_NODE = 257.7043
ARG_OF_PERICENTER = 343.9001
MEAN_ANOMALY   = 16.1618

EPHEMERIS_TYPE = 0
CLASSIFICATION_TYPE = U
NORAD_CAT_ID   = 67007
ELEMENT_SET_NO = 999
REV_AT_EPOCH   = 528
BSTAR          = -.5287262E-1
MEAN_MOTION_DOT = -.258947E-1
MEAN_MOTION_DDOT = 0

CCSDS_OMM_VERS = 2.0
CREATION_DATE  = 
ORIGINATOR     = 

OBJECT_NAME    = STARLINK-36163
OBJECT_ID      = 2025-293F
CENTER_NAME    = EARTH
REF_FRAME      = TEME
TIME_SYSTEM    = UTC
MEAN_ELEMENT_THEORY = SGP/SGP4

EPOCH          = 2026-01-05T02:10:52.059648
MEAN_MOTION    = 15.52560907
ECCENTRICITY   = .00032753
INCLINATION    = 69.9980
RA_OF_ASC_NODE = 257.5237
ARG_OF_PERICENTER = 266.5115
MEAN_ANOMALY   = 93.5697

EPHEMERIS_TYPE = 0
CLASSIFICATION_TYPE = U
NORAD_CAT_ID   = 67008
ELEMENT_SET_NO = 999
REV_AT_EPOCH   = 529
BSTAR          = .13211675E-2
MEAN_MOTION_DOT = .82079E-3
MEAN_MOTION_DDOT = 0

CCSDS_OMM_VERS = 2.0
CREATION_DATE  = 
ORIGINATOR     = 

OBJECT_NAME    = STARLINK-36118
OBJECT_ID      = 2025-293G
CENTER_NAME    = EARTH
REF_FRAME      = TEME
TIME_SYSTEM    = UTC
MEAN_ELEMENT_THEORY = SGP/SGP4

EPOCH          = 2026-01-05T02:10:22.380384
MEAN_MOTION    = 15.52557782
ECCENTRICITY   = .00035754
INCLINATION    = 69.9981
RA_OF_ASC_NODE = 257.5220
ARG_OF_PERICENTER = 269.2376
MEAN_ANOMALY   = 90.8402

EPHEMERIS_TYPE = 0
CLASSIFICATION_TYPE = U
NORAD_CAT_ID   = 67009
ELEMENT_SET_NO = 999
REV_AT_EPOCH   = 529
BSTAR          = .13374213E-2
MEAN_MOTION_DOT = .83095E-3
MEAN_MOTION_DDOT = 0

CCSDS_OMM_VERS = 2.0
CREATION_DATE  = 
ORIGINATOR     = 

OBJECT_NAME    = STARLINK-36189
OBJECT_ID      = 2025-293H
CENTER_NAME    = EARTH
REF_FRAME      = TEME
TIME_SYSTEM    = UTC
MEAN_ELEMENT_THEORY = SGP/SGP4

EPOCH          = 2026-01-05T02:09:23.119488
MEAN_MOTION    = 15.52556575
ECCENTRICITY   = .0003308
INCLINATION    = 69.9984
RA_OF_ASC_NODE = 257.5197
ARG_OF_PERICENTER = 264.4780
MEAN_ANOMALY   = 95.6030

EPHEMERIS_TYPE = 0
CLASSIFICATION_TYPE = U
NORAD_CAT_ID   = 67010
ELEMENT_SET_NO = 999
REV_AT_EPOCH   = 529
BSTAR          = .12474092E-2
MEAN_MOTION_DOT = .7743E-3
MEAN_MOTION_DDOT = 0

CCSDS_OMM_VERS = 2.0
CREATION_DATE  = 
ORIGINATOR     = 

OBJECT_NAME    = STARLINK-36167
OBJECT_ID      = 2025-293J
CENTER_NAME    = EARTH
REF_FRAME      = TEME
TIME_SYSTEM    = UTC
MEAN_ELEMENT_THEORY = SGP/SGP4

EPOCH          = 2026-01-05T02:09:52.775424
MEAN_MOTION    = 15.52562804
ECCENTRICITY   = .00033547
INCLINATION    = 69.9982
RA_OF_ASC_NODE = 257.5209
ARG_OF_PERICENTER = 268.2415
MEAN_ANOMALY   = 91.8388

EPHEMERIS_TYPE = 0
CLASSIFICATION_TYPE = U
NORAD_CAT_ID   = 67011
ELEMENT_SET_NO = 999
REV_AT_EPOCH   = 529
BSTAR          = .14846387E-2
MEAN_MOTION_DOT = .92383E-3
MEAN_MOTION_DDOT = 0

